{
  "norad_id": 53909,
  "name": "STARLINK-4796",
  "history": [
    {
      "epoch": "2026-03-28T15:36:55.202688Z",
      "apogee_km": 540.4678013165076,
      "perigee_km": 538.9776943268271,
      "latitude_deg": -2.9617030851342173e-05,
      "longitude_deg": 168.9630319656406,
      "height_km": 540.5818568046058,
      "semi_major_axis_km": 6917.859747821667,
      "eccentricity": 0.0001077,
      "inclination_deg": 53.2157,
      "raan_deg": 229.2611,
      "arg_perigee_deg": 87.1679,
      "mean_anomaly_deg": 272.9436,
      "mean_motion_rev_day": 15.08846753
    },
    {
      "epoch": "2026-03-29T02:44:36.954240Z",
      "apogee_km": 540.486879133281,
      "perigee_km": 538.9469648502463,
      "latitude_deg": -4.619906602942022e-05,
      "longitude_deg": -0.4986668181449576,
      "height_km": 540.5862629175851,
      "semi_major_axis_km": 6917.853921991764,
      "eccentricity": 0.0001113,
      "inclination_deg": 53.2159,
      "raan_deg": 227.1804,
      "arg_perigee_deg": 88.0235,
      "mean_anomaly_deg": 272.0884,
      "mean_motion_rev_day": 15.08848659
    }
  ]
}